{"type": "FeatureCollection", "features": [ {"type": "Feature", "properties": {"norad_id": 32260, "name": "GPS BIIRM-4 (PRN 15)", "group": "gnss", "lat": -32.73967784416198, "lon": 59.429400496467025, "alt_km": 20445.25816590359, "timestamp": "2025-12-24T03:53:29.889907+00:00", "meta": {"OBJECT_NAME": "GPS BIIRM-4 (PRN 15)", "OBJECT_ID": "2007-047A", "EPOCH": "2025-12-22T05:26:06.407520", "MEAN_MOTION": 2.00564155, "ECCENTRICITY": 0.0163987, "INCLINATION": 53.9614, "RA_OF_ASC_NODE": 87.3666, "ARG_OF_PERICENTER": 85.3577, "MEAN_ANOMALY": 276.5274, "EPHEMERIS_TYPE": 0, "CLASSIFICATION_TYPE": "U", "NORAD_CAT_ID": 32260, "ELEMENT_SET_NO": 999, "REV_AT_EPOCH": 13326, "BSTAR": 0, "MEAN_MOTION_DOT": -1.3e-07, "MEAN_MOTION_DDOT": 0}, "tle": {"line1": "1 32260U 07047A   25356.22646305 -.00000013  00000+0  00000+0 0  9993", "line2": "2 32260  53.9614  87.3666 0163987  85.3577 276.5274  2.00564155133264"}}, "geometry": {"type": "Point", "coordinates": [59.429400496467025, -32.73967784416198]}}, {"type": "Feature", "properties": {"norad_id": 32275, "name": "COSMOS 2433 (720)", "group": "gnss", "lat": -31.1923444672398, "lon": 157.68808778452248, "alt_km": 19124.021175968497, "timestamp": "2025-12-24T03:53:29.889920+00:00", "meta": {"OBJECT_NAME": "COSMOS 2433 (720)", "OBJECT_ID": "2007-052A", "EPOCH": "2025-12-22T00:07:36.568704", "MEAN_MOTION": 2.13104226, "ECCENTRICITY": 0.00051704, "INCLINATION": 65.6781, "RA_OF_ASC_NODE": 321.8942, "ARG_OF_PERICENTER": 255.846, "MEAN_ANOMALY": 104.0915, "EPHEMERIS_TYPE": 0, "CLASSIFICATION_TYPE": "U", "NORAD_CAT_ID": 32275, "ELEMENT_SET_NO": 999, "REV_AT_EPOCH": 14128, "BSTAR": 0, "MEAN_MOTION_DOT": -4.2e-07, "MEAN_MOTION_DDOT": 0}, "tle": {"line1": "1 32275U 07052A   25356.00528436 -.00000042  00000+0  00000+0 0  9997", "line2": "2 32275  65.6781 321.8942 0005170 255.8460 104.0915  2.13104226141283"}}, "geometry": {"type": "Point", "coordinates": [157.68808778452248, -31.1923444672398]}}, {"type": "Feature", "properties": {"norad_id": 32276, "name": "COSMOS 2432 (719)", "group": "gnss", "lat": 19.013308307979013, "lon": 132.97717534728451, "alt_km": 19154.252392588332, "timestamp": "2025-12-24T03:53:29.889932+00:00", "meta": {"OBJECT_NAME": "COSMOS 2432 (719)", "OBJECT_ID": "2007-052B", "EPOCH": "2025-12-23T17:17:50.353152", "MEAN_MOTION": 2.13103402, "ECCENTRICITY": 0.0011367, "INCLINATION": 65.6933, "RA_OF_ASC_NODE": 321.9613, "ARG_OF_PERICENTER": 314.6083, "MEAN_ANOMALY": 225.7918, "EPHEMERIS_TYPE": 0, "CLASSIFICATION_TYPE": "U", "NORAD_CAT_ID": 32276, "ELEMENT_SET_NO": 999, "REV_AT_EPOCH": 14134, "BSTAR": 0, "MEAN_MOTION_DOT": -3.5e-07, "MEAN_MOTION_DDOT": 0}, "tle": {"line1": "1 32276U 07052B   25357.72072168 -.00000035  00000+0  00000+0 0  9996", "line2": "2 32276  65.6933 321.9613 0011367 314.6083 225.7918  2.13103402141345"}}, "geometry": {"type": "Point", "coordinates": [132.97717534728451, 19.013308307979013]}}, {"type": "Feature", "properties": {"norad_id": 32384, "name": "GPS BIIRM-5 (PRN 29)", "group": "gnss", "lat": 55.177796097715515, "lon": 9.267878059376056, "alt_km": 20149.867142870444, "timestamp": "2025-12-24T03:53:29.889944+00:00", "meta": {"OBJECT_NAME": "GPS BIIRM-5 (PRN 29)", "OBJECT_ID": "2007-062A", "EPOCH": "2025-12-19T04:08:10.010976", "MEAN_MOTION": 2.00577702, "ECCENTRICITY": 0.00322663, "INCLINATION": 55.1765, "RA_OF_ASC_NODE": 281.388, "ARG_OF_PERICENTER": 162.2119, "MEAN_ANOMALY": 283.9132, "EPHEMERIS_TYPE": 0, "CLASSIFICATION_TYPE": "U", "NORAD_CAT_ID": 32384, "ELEMENT_SET_NO": 999, "REV_AT_EPOCH": 13190, "BSTAR": 0, "MEAN_MOTION_DOT": -3.8e-07, "MEAN_MOTION_DDOT": 0}, "tle": {"line1": "1 32384U 07062A   25353.17233809 -.00000038  00000+0  00000+0 0  9996", "line2": "2 32384  55.1765 281.3880 0032266 162.2119 283.9132  2.00577702131904"}}, "geometry": {"type": "Point", "coordinates": [9.267878059376056, 55.177796097715515]}}, {"type": "Feature", "properties": {"norad_id": 32393, "name": "COSMOS 2434 (721)", "group": "gnss", "lat": 60.39132282088402, "lon": -40.09550294729422, "alt_km": 19112.98865001633, "timestamp": "2025-12-24T03:53:29.889956+00:00", "meta": {"OBJECT_NAME": "COSMOS 2434 (721)", "OBJECT_ID": "2007-065A", "EPOCH": "2025-12-22T08:26:32.754336", "MEAN_MOTION": 2.13101487, "ECCENTRICITY": 0.00048131, "INCLINATION": 64.3157, "RA_OF_ASC_NODE": 197.8788, "ARG_OF_PERICENTER": 72.4714, "MEAN_ANOMALY": 83.8697, "EPHEMERIS_TYPE": 0, "CLASSIFICATION_TYPE": "U", "NORAD_CAT_ID": 32393, "ELEMENT_SET_NO": 999, "REV_AT_EPOCH": 14000, "BSTAR": 0, "MEAN_MOTION_DOT": 9.5e-07, "MEAN_MOTION_DDOT": 0}, "tle": {"line1": "1 32393U 07065A   25356.35176799  .00000095  00000+0  00000+0 0  9998", "line2": "2 32393  64.3157 197.8788 0004813  72.4714  83.8697  2.13101487140000"}}, "geometry": {"type": "Point", "coordinates": [-40.09550294729422, 60.39132282088402]}}, {"type": "Feature", "properties": {"norad_id": 32395, "name": "COSMOS 2436 (723)", "group": "gnss", "lat": -49.881699771150544, "lon": 52.72640524556222, "alt_km": 19166.271644270175, "timestamp": "2025-12-24T03:53:29.889968+00:00", "meta": {"OBJECT_NAME": "COSMOS 2436 (723)", "OBJECT_ID": "2007-065C", "EPOCH": "2025-12-23T14:51:15.098400", "MEAN_MOTION": 2.13100222, "ECCENTRICITY": 0.0017811, "INCLINATION": 64.3245, "RA_OF_ASC_NODE": 197.9064, "ARG_OF_PERICENTER": 10.214, "MEAN_ANOMALY": 171.2752, "EPHEMERIS_TYPE": 0, "CLASSIFICATION_TYPE": "U", "NORAD_CAT_ID": 32395, "ELEMENT_SET_NO": 999, "REV_AT_EPOCH": 13998, "BSTAR": 0, "MEAN_MOTION_DOT": 9.6e-07, "MEAN_MOTION_DDOT": 0}, "tle": {"line1": "1 32395U 07065C   25357.61892475  .00000096  00000+0  00000+0 0  9997", "line2": "2 32395  64.3245 197.9064 0017811  10.2140 171.2752  2.13100222139988"}}, "geometry": {"type": "Point", "coordinates": [52.72640524556222, -49.881699771150544]}}, {"type": "Feature", "properties": {"norad_id": 32711, "name": "GPS BIIRM-6 (PRN 07)", "group": "gnss", "lat": 12.171391520268466, "lon": 165.77080388257184, "alt_km": 20519.85631111491, "timestamp": "2025-12-24T03:53:29.889979+00:00", "meta": {"OBJECT_NAME": "GPS BIIRM-6 (PRN 07)", "OBJECT_ID": "2008-012A", "EPOCH": "2025-12-23T15:24:58.034304", "MEAN_MOTION": 2.00566078, "ECCENTRICITY": 0.020293, "INCLINATION": 54.4783, "RA_OF_ASC_NODE": 156.9377, "ARG_OF_PERICENTER": 245.0787, "MEAN_ANOMALY": 112.7846, "EPHEMERIS_TYPE": 0, "CLASSIFICATION_TYPE": "U", "NORAD_CAT_ID": 32711, "ELEMENT_SET_NO": 999, "REV_AT_EPOCH": 13023, "BSTAR": 0, "MEAN_MOTION_DOT": 8.4e-07, "MEAN_MOTION_DDOT": 0}, "tle": {"line1": "1 32711U 08012A   25357.64233836  .00000084  00000+0  00000+0 0  9992", "line2": "2 32711  54.4783 156.9377 0202930 245.0787 112.7846  2.00566078130236"}}, "geometry": {"type": "Point", "coordinates": [165.77080388257184, 12.171391520268466]}}, {"type": "Feature", "properties": {"norad_id": 35752, "name": "GPS BIIRM-8 (PRN 05)", "group": "gnss", "lat": 26.54101716396938, "lon": 53.96605580954241, "alt_km": 20088.649183271693, "timestamp": "2025-12-24T03:53:29.889991+00:00", "meta": {"OBJECT_NAME": "GPS BIIRM-8 (PRN 05)", "OBJECT_ID": "2009-043A", "EPOCH": "2025-12-22T09:03:38.471040", "MEAN_MOTION": 2.00565138, "ECCENTRICITY": 0.00515987, "INCLINATION": 56.0976, "RA_OF_ASC_NODE": 34.4031, "ARG_OF_PERICENTER": 81.7402, "MEAN_ANOMALY": 102.7505, "EPHEMERIS_TYPE": 0, "CLASSIFICATION_TYPE": "U", "NORAD_CAT_ID": 35752, "ELEMENT_SET_NO": 999, "REV_AT_EPOCH": 11981, "BSTAR": 0, "MEAN_MOTION_DOT": -5.3e-07, "MEAN_MOTION_DDOT": 0}, "tle": {"line1": "1 35752U 09043A   25356.37752860 -.00000053  00000+0  00000+0 0  9994", "line2": "2 35752  56.0976  34.4031 0051598  81.7402 102.7505  2.00565138119812"}}, "geometry": {"type": "Point", "coordinates": [53.96605580954241, 26.54101716396938]}}, {"type": "Feature", "properties": {"norad_id": 36111, "name": "COSMOS 2456 (730)", "group": "gnss", "lat": -63.84552284713986, "lon": -30.7121390048154, "alt_km": 19128.613700076774, "timestamp": "2025-12-24T03:53:29.890003+00:00", "meta": {"OBJECT_NAME": "COSMOS 2456 (730)", "OBJECT_ID": "2009-070A", "EPOCH": "2025-12-23T08:10:18.888096", "MEAN_MOTION": 2.13103774, "ECCENTRICITY": 0.00036109, "INCLINATION": 64.9055, "RA_OF_ASC_NODE": 76.9756, "ARG_OF_PERICENTER": 295.3784, "MEAN_ANOMALY": 56.6202, "EPHEMERIS_TYPE": 0, "CLASSIFICATION_TYPE": "U", "NORAD_CAT_ID": 36111, "ELEMENT_SET_NO": 999, "REV_AT_EPOCH": 12467, "BSTAR": 0, "MEAN_MOTION_DOT": -1e-08, "MEAN_MOTION_DDOT": 0}, "tle": {"line1": "1 36111U 09070A   25357.34049639 -.00000001  00000+0  00000+0 0  9998", "line2": "2 36111  64.9055  76.9756 0003610 295.3784  56.6202  2.13103774124670"}}, "geometry": {"type": "Point", "coordinates": [-30.7121390048154, -63.84552284713986]}}, {"type": "Feature", "properties": {"norad_id": 36112, "name": "COSMOS 2457 (733)", "group": "gnss", "lat": 28.067048070203672, "lon": 91.26569503660673, "alt_km": 19134.412318638697, "timestamp": "2025-12-24T03:53:29.890014+00:00", "meta": {"OBJECT_NAME": "COSMOS 2457 (733)", "OBJECT_ID": "2009-070B", "EPOCH": "2025-12-23T15:49:23.328192", "MEAN_MOTION": 2.13101141, "ECCENTRICITY": 0.0004506, "INCLINATION": 64.8913, "RA_OF_ASC_NODE": 76.812, "ARG_OF_PERICENTER": 162.7292, "MEAN_ANOMALY": 202.8862, "EPHEMERIS_TYPE": 0, "CLASSIFICATION_TYPE": "U", "NORAD_CAT_ID": 36112, "ELEMENT_SET_NO": 999, "REV_AT_EPOCH": 12469, "BSTAR": 0, "MEAN_MOTION_DOT": -1e-08, "MEAN_MOTION_DDOT": 0}, "tle": {"line1": "1 36112U 09070B   25357.65929778 -.00000001  00000+0  00000+0 0  9994", "line2": "2 36112  64.8913  76.8120 0004506 162.7292 202.8862  2.13101141124698"}}, "geometry": {"type": "Point", "coordinates": [91.26569503660673, 28.067048070203672]}}]}